{
  "type": "FeatureCollection",
  "features": [
    {
      "type": "Feature",
      "properties": {
        "norad_id": 66052,
        "name": "HRC MONOBLOCK CAMERA",
        "group": "stations",
        "lat": 10.81120938845353,
        "lon": -179.23186879554996,
        "alt_km": 408.00356282325174,
        "timestamp": "2025-12-06T14:35:35.929609+00:00",
        "meta_object_name": "HRC MONOBLOCK CAMERA",
        "meta_object_id": "1998-067XR",
        "meta_epoch": "2025-12-05T21:33:04.932864",
        "meta_mean_motion": 15.5347422,
        "meta_eccentricity": 0.00041965,
        "meta_inclination": 51.6285,
        "meta_ra_of_asc_node": 175.6042,
        "meta_arg_of_pericenter": 157.7899,
        "meta_mean_anomaly": 202.3273,
        "meta_ephemeris_type": 0,
        "meta_classification_type": "U",
        "meta_norad_cat_id": 66052,
        "meta_element_set_no": 999,
        "meta_rev_at_epoch": 777,
        "meta_bstar": 0.00068980768,
        "meta_mean_motion_dot": 0.00044373,
        "meta_mean_motion_ddot": 0,
        "tle_line1": "1 66052U 98067XR  25339.89797376  .00044373  00000+0  68981-3 0  9992",
        "tle_line2": "2 66052  51.6285 175.6042 0004196 157.7899 202.3273 15.53474220  7772"
      },
      "geometry": {
        "type": "Point",
        "coordinates": [
          -179.23186879554996,
          10.81120938845353
        ]
      }
    },
    {
      "type": "Feature",
      "properties": {
        "norad_id": 66174,
        "name": "HTV-X1",
        "group": "stations",
        "lat": 2.7212246842780536,
        "lon": 174.99489565726282,
        "alt_km": 421.1035542846903,
        "timestamp": "2025-12-06T14:35:35.929619+00:00",
        "meta_object_name": "HTV-X1",
        "meta_object_id": "2025-241A",
        "meta_epoch": "2025-12-06T00:38:46.837536",
        "meta_mean_motion": 15.49350538,
        "meta_eccentricity": 0.00036145,
        "meta_inclination": 51.6296,
        "meta_ra_of_asc_node": 175.7148,
        "meta_arg_of_pericenter": 210.2448,
        "meta_mean_anomaly": 149.8333,
        "meta_ephemeris_type": 0,
        "meta_classification_type": "U",
        "meta_norad_cat_id": 66174,
        "meta_element_set_no": 999,
        "meta_rev_at_epoch": 51,
        "meta_bstar": 0.00025885847,
        "meta_mean_motion_dot": 0.00014013,
        "meta_mean_motion_ddot": 0,
        "tle_line1": "1 66174U 25241A   25340.02693099  .00014013  00000+0  25886-3 0  9990",
        "tle_line2": "2 66174  51.6296 175.7148 0003614 210.2448 149.8333 15.49350538   513"
      },
      "geometry": {
        "type": "Point",
        "coordinates": [
          174.99489565726282,
          2.7212246842780536
        ]
      }
    },
    {
      "type": "Feature",
      "properties": {
        "norad_id": 66515,
        "name": "SZ-21 MODULE",
        "group": "stations",
        "lat": 40.498616144022826,
        "lon": 128.62491337211884,
        "alt_km": 378.55464603687415,
        "timestamp": "2025-12-06T14:35:35.929629+00:00",
        "meta_object_name": "SZ-21 MODULE",
        "meta_object_id": "2025-246C",
        "meta_epoch": "2025-12-05T12:10:17.025600",
        "meta_mean_motion": 15.61972458,
        "meta_eccentricity": 0.000603,
        "meta_inclination": 41.4776,
        "meta_ra_of_asc_node": 60.1494,
        "meta_arg_of_pericenter": 219.3277,
        "meta_mean_anomaly": 140.7125,
        "meta_ephemeris_type": 0,
        "meta_classification_type": "U",
        "meta_norad_cat_id": 66515,
        "meta_element_set_no": 999,
        "meta_rev_at_epoch": 331,
        "meta_bstar": 0.00043081448,
        "meta_mean_motion_dot": 0.00038539,
        "meta_mean_motion_ddot": 0,
        "tle_line1": "1 66515U 25246C   25339.50714150  .00038539  00000+0  43081-3 0  9993",
        "tle_line2": "2 66515  41.4776  60.1494 0006030 219.3277 140.7125 15.61972458  3313"
      },
      "geometry": {
        "type": "Point",
        "coordinates": [
          128.62491337211884,
          40.498616144022826
        ]
      }
    },
    {
      "type": "Feature",
      "properties": {
        "norad_id": 66645,
        "name": "SHENZHOU-22",
        "group": "stations",
        "lat": -36.188057577283594,
        "lon": -70.14320936138643,
        "alt_km": 395.05605786346223,
        "timestamp": "2025-12-06T14:35:35.929638+00:00",
        "meta_object_name": "SHENZHOU-22",
        "meta_object_id": "2025-272A",
        "meta_epoch": "2025-12-06T05:51:59.537376",
        "meta_mean_motion": 15.58781586,
        "meta_eccentricity": 0.00096041,
        "meta_inclination": 41.4683,
        "meta_ra_of_asc_node": 56.1283,
        "meta_arg_of_pericenter": 339.9163,
        "meta_mean_anomaly": 20.1296,
        "meta_ephemeris_type": 0,
        "meta_classification_type": "U",
        "meta_norad_cat_id": 66645,
        "meta_element_set_no": 999,
        "meta_rev_at_epoch": 26295,
        "meta_bstar": 0.00042196391,
        "meta_mean_motion_dot": 0.00033378,
        "meta_mean_motion_ddot": 0,
        "tle_line1": "1 66645U 25272A   25340.24443909  .00033378  00000+0  42196-3 0  9992",
        "tle_line2": "2 66645  41.4683  56.1283 0009604 339.9163  20.1296 15.58781586262951"
      },
      "geometry": {
        "type": "Point",
        "coordinates": [
          -70.14320936138643,
          -36.188057577283594
        ]
      }
    },
    {
      "type": "Feature",
      "properties": {
        "norad_id": 66646,
        "name": "CZ-2F R/B",
        "group": "stations",
        "lat": -37.10670708690757,
        "lon": -72.6659875930346,
        "alt_km": 166.33161619620842,
        "timestamp": "2025-12-06T14:35:35.929649+00:00",
        "meta_object_name": "CZ-2F R/B",
        "meta_object_id": "2025-272B",
        "meta_epoch": "2025-12-06T06:14:24.329184",
        "meta_mean_motion": 16.29192753,
        "meta_eccentricity": 0.00476037,
        "meta_inclination": 41.4551,
        "meta_ra_of_asc_node": 50.6938,
        "meta_arg_of_pericenter": 215.5686,
        "meta_mean_anomaly": 144.2,
        "meta_ephemeris_type": 0,
        "meta_classification_type": "U",
        "meta_norad_cat_id": 66646,
        "meta_element_set_no": 999,
        "meta_rev_at_epoch": 179,
        "meta_bstar": 0.00054441108,
        "meta_mean_motion_dot": 0.03508525,
        "meta_mean_motion_ddot": 7.787033e-06,
        "tle_line1": "1 66646U 25272B   25340.26000381  .03508525  77870-5  54441-3 0  9993",
        "tle_line2": "2 66646  41.4551  50.6938 0047603 215.5686 144.2000 16.29192753  1797"
      },
      "geometry": {
        "type": "Point",
        "coordinates": [
          -72.6659875930346,
          -37.10670708690757
        ]
      }
    },
    {
      "type": "Feature",
      "properties": {
        "norad_id": 66664,
        "name": "SOYUZ-MS 28",
        "group": "stations",
        "lat": 2.721226707394036,
        "lon": 174.99489726267822,
        "alt_km": 421.103554063473,
        "timestamp": "2025-12-06T14:35:35.929659+00:00",
        "meta_object_name": "SOYUZ-MS 28",
        "meta_object_id": "2025-275A",
        "meta_epoch": "2025-12-06T00:38:46.837536",
        "meta_mean_motion": 15.49350538,
        "meta_eccentricity": 0.00036145,
        "meta_inclination": 51.6296,
        "meta_ra_of_asc_node": 175.7148,
        "meta_arg_of_pericenter": 210.2448,
        "meta_mean_anomaly": 149.8333,
        "meta_ephemeris_type": 0,
        "meta_classification_type": "U",
        "meta_norad_cat_id": 66664,
        "meta_element_set_no": 999,
        "meta_rev_at_epoch": 128,
        "meta_bstar": 0.00025885847,
        "meta_mean_motion_dot": 0.00014013,
        "meta_mean_motion_ddot": 0,
        "tle_line1": "1 66664U 25275A   25340.02693099  .00014013  00000+0  25886-3 0  9991",
        "tle_line2": "2 66664  51.6296 175.7148 0003614 210.2448 149.8333 15.49350538  1282"
      },
      "geometry": {
        "type": "Point",
        "coordinates": [
          174.99489726267822,
          2.721226707394036
        ]
      }
    },
    {
      "type": "Feature",
      "properties": {
        "norad_id": 66906,
        "name": "1998-067XS",
        "group": "stations",
        "lat": 10.553161447335684,
        "lon": -178.69592513006552,
        "alt_km": 418.3887328041328,
        "timestamp": "2025-12-06T14:35:35.929668+00:00",
        "meta_object_name": "1998-067XS",
        "meta_object_id": "1998-067XS",
        "meta_epoch": "2025-12-06T00:36:35.431776",
        "meta_mean_motion": 15.50078443,
        "meta_eccentricity": 0.00042467,
        "meta_inclination": 51.6295,
        "meta_ra_of_asc_node": 175.7046,
        "meta_arg_of_pericenter": 174.3007,
        "meta_mean_anomaly": 185.803,
        "meta_ephemeris_type": 0,
        "meta_classification_type": "U",
        "meta_norad_cat_id": 66906,
        "meta_element_set_no": 999,
        "meta_rev_at_epoch": 57,
        "meta_bstar": 0.00063992594,
        "meta_mean_motion_dot": 0.00036342,
        "meta_mean_motion_ddot": 0,
        "tle_line1": "1 66906U 98067XS  25340.02541009  .00036342  00000+0  63993-3 0  9992",
        "tle_line2": "2 66906  51.6295 175.7046 0004246 174.3007 185.8030 15.50078443   579"
      },
      "geometry": {
        "type": "Point",
        "coordinates": [
          -178.69592513006552,
          10.553161447335684
        ]
      }
    }
  ]
}